NORAD_CAT_ID,OBJECT_NAME,OBJECT_TYPE,EPOCH,MEAN_MOTION,ECCENTRICITY,INCLINATION,RA_OF_ASC_NODE,ARG_OF_PERICENTER,MEAN_ANOMALY,BSTAR,MEAN_MOTION_DOT,MEAN_MOTION_DDOT,TLE_LINE0,TLE_LINE1,TLE_LINE2,SEMIMAJOR_AXIS,PERIOD,APOGEE,PERIGEE,DECAYED
52999.0,STARLINK-4217,PAYLOAD,2023-12-10 19:42:40,15.08851278,0.000178,53.216,174.6487,78.7076,281.4116,0.00010922,1.451e-05,0.0,0 STARLINK-4217,1 52999U 22076P   23344.82129713  .00001451  00000-0  10922-3 0  9998,2 52999  53.2160 174.6487 0001780  78.7076 281.4116 15.08851278 79544,6917.846,95.437,540.942,538.48,0.0
52999.0,STARLINK-4217,PAYLOAD,2023-12-11 17:58:04,15.08855146,0.0001971,53.217,170.4847,103.1984,256.9228,-0.00012173,-2.226e-05,0.0,0 STARLINK-4217,1 52999U 22076P   23345.74866619 -.00002226  00000-0 -12173-3 0  9996,2 52999  53.2170 170.4847 0001971 103.1984 256.9228 15.08855146 79686,6917.834,95.437,541.063,538.336,0.0
52999.0,STARLINK-4217,PAYLOAD,2023-12-12 17:48:51,15.08843249,0.0001812,53.2164,166.0275,95.684,264.4358,-5.4162e-05,-1.15e-05,0.0,0 STARLINK-4217,1 52999U 22076P   23346.74226389 -.00001150  00000-0 -54162-4 0  9991,2 52999  53.2164 166.0275 0001812  95.6840 264.4358 15.08843249 79831,6917.87,95.437,540.989,538.482,0.0
52999.0,STARLINK-4217,PAYLOAD,2023-12-13 19:15:01,15.08840481,0.0001774,53.216,161.2695,91.3834,268.7361,6.9636e-05,8.2e-06,0.0,0 STARLINK-4217,1 52999U 22076P   23347.80210192  .00000820  00000-0  69636-4 0  9997,2 52999  53.2160 161.2695 0001774  91.3834 268.7361 15.08840481 79996,6917.879,95.438,540.971,538.517,0.0
52999.0,STARLINK-4217,PAYLOAD,2023-12-14 19:05:48,15.0884056,0.0001727,53.2157,156.8117,92.4298,267.6892,5.6716e-05,6.15e-06,0.0,0 STARLINK-4217,1 52999U 22076P   23348.79570347  .00000615  00000-0  56716-4 0  9994,2 52999  53.2157 156.8117 0001727  92.4298 267.6892 15.08840560 79675,6917.879,95.438,540.938,538.549,0.0
52999.0,STARLINK-4217,PAYLOAD,2023-12-15 17:21:13,15.08838008,0.0001849,53.2161,152.6515,84.9939,275.1264,1.9521e-05,2.3e-07,0.0,0 STARLINK-4217,1 52999U 22076P   23349.72306792  .00000023  00000-0  19521-4 0  9995,2 52999  53.2161 152.6515 0001849  84.9939 275.1264 15.08838008 80289,6917.886,95.438,541.031,538.472,0.0
52999.0,STARLINK-4217,PAYLOAD,2023-12-16 14:01:13,15.08842996,0.0001763,53.216,148.7858,90.1828,269.9366,7.2943e-05,8.73e-06,0.0,0 STARLINK-4217,1 52999U 22076P   23350.58418298  .00000873  00000-0  72943-4 0  9996,2 52999  53.2160 148.7858 0001763  90.1828 269.9366 15.08842996 79941,6917.871,95.437,540.956,538.517,0.0
52999.0,STARLINK-4217,PAYLOAD,2023-12-16 17:11:59,15.08844126,0.000179,53.2163,148.1895,88.4902,271.6295,8.0425e-05,9.92e-06,0.0,0 STARLINK-4217,1 52999U 22076P   23350.71666188  .00000992  00000-0  80425-4 0  9990,2 52999  53.2163 148.1895 0001790  88.4902 271.6295 15.08844126 80436,6917.868,95.437,540.971,538.494,0.0
52999.0,STARLINK-4217,PAYLOAD,2023-12-17 13:52:00,15.08839855,0.0001807,53.2169,144.3194,92.9545,267.1654,4.0169e-05,3.51e-06,0.0,0 STARLINK-4217,1 52999U 22076P   23351.57778527  .00000351  00000-0  40169-4 0  9996,2 52999  53.2169 144.3194 0001807  92.9545 267.1654 15.08839855 80098,6917.881,95.438,540.996,538.496,0.0
52999.0,STARLINK-4217,PAYLOAD,2023-12-17 17:02:46,15.08840644,0.0001804,53.2168,143.7236,91.9915,268.1284,4.3688e-05,4.07e-06,0.0,0 STARLINK-4217,1 52999U 22076P   23351.71026446  .00000407  00000-0  43688-4 0  9999,2 52999  53.2168 143.7236 0001804  91.9915 268.1284 15.08840644 80586,6917.878,95.438,540.991,538.495,0.0
52999.0,STARLINK-4217,PAYLOAD,2023-12-18 13:42:47,15.0884227,0.00019,53.2172,139.8593,105.0375,255.0827,4.7251e-05,4.64e-06,0.0,0 STARLINK-4217,1 52999U 22076P   23352.57138215  .00000464  00000-0  47251-4 0  9995,2 52999  53.2172 139.8593 0001900 105.0375 255.0827 15.08842270 80245,6917.873,95.437,541.053,538.424,0.0
52999.0,STARLINK-4217,PAYLOAD,2023-12-18 15:18:10,15.08842098,0.0001942,53.2177,139.5622,108.4259,251.6944,4.4282e-05,4.17e-06,0.0,0 STARLINK-4217,1 52999U 22076P   23352.63762203  .00000417  00000-0  44282-4 0  9991,2 52999  53.2177 139.5622 0001942 108.4259 251.6944 15.08842098 80255,6917.874,95.437,541.082,538.396,0.0
52999.0,STARLINK-4217,PAYLOAD,2023-12-19 13:33:34,15.08838079,0.0001901,53.2177,135.4025,112.9709,247.1484,2.3653e-05,8.8e-07,0.0,0 STARLINK-4217,1 52999U 22076P   23353.56498623  .00000088  00000-0  23653-4 0  9999,2 52999  53.2177 135.4025 0001901 112.9709 247.1484 15.08838079 80390,6917.886,95.438,541.066,538.436,0.0
52999.0,STARLINK-4217,PAYLOAD,2023-12-19 16:44:21,15.08836879,0.0001742,53.2175,134.8062,106.1833,253.9351,1.9024e-06,-2.58e-06,0.0,0 STARLINK-4217,1 52999U 22076P   23353.69746778 -.00000258  00000-0  19024-5 0  9998,2 52999  53.2175 134.8062 0001742 106.1833 253.9351 15.08836879 80886,6917.89,95.438,540.96,538.55,0.0
52999.0,STARLINK-4217,PAYLOAD,2023-12-20 13:24:22,15.08832651,0.0001675,53.2179,130.9403,102.917,257.2009,1.1357e-06,-2.7e-06,0.0,0 STARLINK-4217,1 52999U 22076P   23354.55859363 -.00000270  00000-0  11357-5 0  9994,2 52999  53.2179 130.9403 0001675 102.9170 257.2009 15.08832651 80543,6917.903,95.438,540.927,538.609,0.0
52999.0,STARLINK-4217,PAYLOAD,2023-12-20 16:35:08,15.08825533,0.0001658,53.2178,130.3441,94.831,265.2872,0.00015545,2.186e-05,0.0,0 STARLINK-4217,1 52999U 22076P   23354.69107364  .00002186  00000-0  15545-3 0  9994,2 52999  53.2178 130.3441 0001658  94.8310 265.2872 15.08825533 81037,6917.925,95.438,540.937,538.643,0.0
52999.0,STARLINK-4217,PAYLOAD,2023-12-21 14:50:32,15.0883913,0.0001555,53.218,126.1811,92.4792,267.6378,5.7152e-05,6.22e-06,0.0,0 STARLINK-4217,1 52999U 22076P   23355.61843185  .00000622  00000-0  57152-4 0  9999,2 52999  53.2180 126.1811 0001555  92.4792 267.6378 15.08839130 80706,6917.883,95.438,540.824,538.672,0.0
52999.0,STARLINK-4217,PAYLOAD,2023-12-22 14:41:19,15.08842358,0.0001724,53.2174,121.7236,64.1385,295.9785,0.00010849,1.439e-05,0.0,0 STARLINK-4217,1 52999U 22076P   23356.61203232  .00001439  00000-0  10849-3 0  9991,2 52999  53.2174 121.7236 0001724  64.1385 295.9785 15.08842358 80851,6917.873,95.437,540.931,538.546,0.0
52999.0,STARLINK-4217,PAYLOAD,2023-12-22 16:16:42,15.0884552,0.0001859,53.2179,121.4266,61.3604,298.7574,0.00013826,1.913e-05,0.0,0 STARLINK-4217,1 52999U 22076P   23356.67827009  .00001913  00000-0  13826-3 0  9996,2 52999  53.2179 121.4266 0001859  61.3604 298.7574 15.08845520 81333,6917.864,95.437,541.015,538.442,0.0
52999.0,STARLINK-4217,PAYLOAD,2023-12-23 14:32:06,15.08842468,0.000171,53.2175,117.2665,65.1789,294.9381,4.085e-05,3.62e-06,0.0,0 STARLINK-4217,1 52999U 22076P   23357.60563472  .00000362  00000-0  40850-4 0  9996,2 52999  53.2175 117.2665 0001710  65.1789 294.9381 15.08842468 81003,6917.873,95.437,540.921,538.555,0.0
52999.0,STARLINK-4217,PAYLOAD,2023-12-23 17:42:52,15.08846147,0.0001849,53.2191,116.6575,63.7849,296.3333,5.2908e-05,5.54e-06,0.0,0 STARLINK-4217,1 52999U 22076P   23357.73811066  .00000554  00000-0  52908-4 0  9995,2 52999  53.2191 116.6575 0001849  63.7849 296.3333 15.08846147 81492,6917.862,95.437,541.006,538.447,0.0
52999.0,STARLINK-4217,PAYLOAD,2023-12-24 14:22:53,15.08849054,0.0001467,53.2175,112.7997,84.8775,275.2384,2.6066e-07,-2.84e-06,0.0,0 STARLINK-4217,1 52999U 22076P   23358.59922717 -.00000284  00000-0  26066-6 0  9995,2 52999  53.2175 112.7997 0001467  84.8775 275.2384 15.08849054 81152,6917.853,95.437,540.733,538.703,0.0
52999.0,STARLINK-4217,PAYLOAD,2023-12-25 11:02:54,15.08845588,0.0001375,53.2171,108.9347,91.0524,269.0626,-3.1283e-05,-7.86e-06,0.0,0 STARLINK-4217,1 52999U 22076P   23359.46035077 -.00000786  00000-0 -31283-4 0  9999,2 52999  53.2171 108.9347 0001375  91.0524 269.0626 15.08845588 81758,6917.863,95.437,540.68,538.777,0.0
52999.0,STARLINK-4217,PAYLOAD,2023-12-25 14:13:40,15.0884471,0.0001426,53.2175,108.3406,90.3616,269.754,-1.552e-05,-5.35e-06,0.0,0 STARLINK-4217,1 52999U 22076P   23359.59283072 -.00000535  00000-0 -15520-4 0  9991,2 52999  53.2175 108.3406 0001426  90.3616 269.7540 15.08844710 81302,6917.866,95.437,540.717,538.745,0.0
52999.0,STARLINK-4217,PAYLOAD,2023-12-26 10:53:41,15.08839139,0.0001425,53.2168,104.4752,97.4181,262.6973,-1.5224e-05,-5.3e-06,0.0,0 STARLINK-4217,1 52999U 22076P   23360.45395644 -.00000530  00000-0 -15224-4 0  9993,2 52999  53.2168 104.4752 0001425  97.4181 262.6973 15.08839139 81906,6917.883,95.438,540.734,538.762,0.0
52999.0,STARLINK-4217,PAYLOAD,2023-12-26 14:04:27,15.08842708,0.0001503,53.2176,103.8822,108.2455,251.8701,-1.5286e-05,-5.31e-06,0.0,0 STARLINK-4217,1 52999U 22076P   23360.58643502 -.00000531  00000-0 -15286-4 0  9995,2 52999  53.2176 103.8822 0001503 108.2455 251.8701 15.08842708 81453,6917.872,95.437,540.777,538.697,0.0
52999.0,STARLINK-4217,PAYLOAD,2023-12-27 13:55:15,15.08838683,0.0001414,53.2175,99.4202,103.9432,256.1717,7.501e-05,9.06e-06,0.0,0 STARLINK-4217,1 52999U 22076P   23361.58003714  .00000906  00000-0  75010-4 0  9996,2 52999  53.2175  99.4202 0001414 103.9432 256.1717 15.08838683 81601,6917.884,95.438,540.728,538.771,0.0
52999.0,STARLINK-4217,PAYLOAD,2023-12-28 13:46:02,15.08842483,0.0001388,53.2179,94.9596,92.4342,267.6809,9.3743e-05,1.204e-05,0.0,0 STARLINK-4217,1 52999U 22076P   23362.57363754  .00001204  00000-0  93743-4 0  9994,2 52999  53.2179  94.9596 0001388  92.4342 267.6809 15.08842483 81751,6917.873,95.437,540.698,538.778,0.0
52999.0,STARLINK-4217,PAYLOAD,2023-12-29 12:01:28,15.08809521,0.0001408,53.2173,90.8026,48.5555,311.5558,-9.6843e-05,-1.827e-05,0.0,0 STARLINK-4217,1 52999U 22076P   23363.50102495 -.00001827  00000-0 -96843-4 0  9998,2 52999  53.2173  90.8026 0001408  48.5555 311.5558 15.08809521 82363,6917.974,95.439,540.813,538.865,0.0
52999.0,STARLINK-4217,PAYLOAD,2023-12-29 13:36:50,15.08870598,0.0001622,53.2167,90.5078,90.918,269.1998,-0.0012054,-0.00019437,0.0,0 STARLINK-4217,1 52999U 22076P   23363.56725438 -.00019437  00000-0 -12054-2 0  9998,2 52999  53.2167  90.5078 0001622  90.9180 269.1998 15.08870598 81900,6917.787,95.436,540.774,538.53,0.0
